{
  "type": "FeatureCollection",
  "features": [
    {
      "type": "Feature",
      "properties": {
        "norad_id": 33860,
        "name": "IRIDIUM 33 DEB",
        "group": "iridium-33-debris",
        "lat": -79.94142209406395,
        "lon": 3.3752722495137073,
        "alt_km": 673.8769842340052,
        "timestamp": "2025-12-19T10:50:01.586219+00:00",
        "meta_object_name": "IRIDIUM 33 DEB",
        "meta_object_id": "1997-051AD",
        "meta_epoch": "2025-12-18T14:31:05.174400",
        "meta_mean_motion": 14.67436925,
        "meta_eccentricity": 0.00067189,
        "meta_inclination": 86.3829,
        "meta_ra_of_asc_node": 24.6422,
        "meta_arg_of_pericenter": 336.0617,
        "meta_mean_anomaly": 154.5201,
        "meta_ephemeris_type": 0,
        "meta_classification_type": "U",
        "meta_norad_cat_id": 33860,
        "meta_element_set_no": 999,
        "meta_rev_at_epoch": 88808,
        "meta_bstar": 0.00081514555,
        "meta_mean_motion_dot": 4.635e-05,
        "meta_mean_motion_ddot": 0,
        "tle_line1": "1 33860U 97051AD  25352.60492100  .00004635  00000+0  81515-3 0  9991",
        "tle_line2": "2 33860  86.3829  24.6422 0006718 336.0617 154.5201 14.67436925888083"
      },
      "geometry": {
        "type": "Point",
        "coordinates": [
          3.3752722495137073,
          -79.94142209406395
        ]
      }
    },
    {
      "type": "Feature",
      "properties": {
        "norad_id": 33862,
        "name": "IRIDIUM 33 DEB",
        "group": "iridium-33-debris",
        "lat": 5.404338632279443,
        "lon": 34.91152013327841,
        "alt_km": 636.6343274294131,
        "timestamp": "2025-12-19T10:50:01.586230+00:00",
        "meta_object_name": "IRIDIUM 33 DEB",
        "meta_object_id": "1997-051AF",
        "meta_epoch": "2025-12-18T14:17:29.205888",
        "meta_mean_motion": 14.69565886,
        "meta_eccentricity": 0.00528917,
        "meta_inclination": 86.4087,
        "meta_ra_of_asc_node": 34.9485,
        "meta_arg_of_pericenter": 49.5789,
        "meta_mean_anomaly": 111.0482,
        "meta_ephemeris_type": 0,
        "meta_classification_type": "U",
        "meta_norad_cat_id": 33862,
        "meta_element_set_no": 999,
        "meta_rev_at_epoch": 88909,
        "meta_bstar": 0.0010173542,
        "meta_mean_motion_dot": 6.195e-05,
        "meta_mean_motion_ddot": 0,
        "tle_line1": "1 33862U 97051AF  25352.59547692  .00006195  00000+0  10174-2 0  9993",
        "tle_line2": "2 33862  86.4087  34.9485 0052891  49.5789 111.0482 14.69565886889096"
      },
      "geometry": {
        "type": "Point",
        "coordinates": [
          34.91152013327841,
          5.404338632279443
        ]
      }
    },
    {
      "type": "Feature",
      "properties": {
        "norad_id": 33866,
        "name": "IRIDIUM 33 DEB",
        "group": "iridium-33-debris",
        "lat": 81.73000594272001,
        "lon": 116.63112430713814,
        "alt_km": 755.0671180396457,
        "timestamp": "2025-12-19T10:50:01.586241+00:00",
        "meta_object_name": "IRIDIUM 33 DEB",
        "meta_object_id": "1997-051AK",
        "meta_epoch": "2025-12-18T19:52:11.975232",
        "meta_mean_motion": 14.25292882,
        "meta_eccentricity": 0.01148798,
        "meta_inclination": 86.3001,
        "meta_ra_of_asc_node": 90.46,
        "meta_arg_of_pericenter": 142.0822,
        "meta_mean_anomaly": 344.4726,
        "meta_ephemeris_type": 0,
        "meta_classification_type": "U",
        "meta_norad_cat_id": 33866,
        "meta_element_set_no": 999,
        "meta_rev_at_epoch": 86897,
        "meta_bstar": 0.00043591278,
        "meta_mean_motion_dot": 1.119e-05,
        "meta_mean_motion_ddot": 0,
        "tle_line1": "1 33866U 97051AK  25352.82791638  .00001119  00000+0  43591-3 0  9995",
        "tle_line2": "2 33866  86.3001  90.4600 0114879 142.0822 344.4726 14.25292882868975"
      },
      "geometry": {
        "type": "Point",
        "coordinates": [
          116.63112430713814,
          81.73000594272001
        ]
      }
    },
    {
      "type": "Feature",
      "properties": {
        "norad_id": 33867,
        "name": "IRIDIUM 33 DEB",
        "group": "iridium-33-debris",
        "lat": 64.17940879393097,
        "lon": 159.03661534499474,
        "alt_km": 310.79892536258194,
        "timestamp": "2025-12-19T10:50:01.586260+00:00",
        "meta_object_name": "IRIDIUM 33 DEB",
        "meta_object_id": "1997-051AL",
        "meta_epoch": "2025-12-18T17:38:10.165632",
        "meta_mean_motion": 15.79918724,
        "meta_eccentricity": 0.00134544,
        "meta_inclination": 86.3657,
        "meta_ra_of_asc_node": 346.9641,
        "meta_arg_of_pericenter": 94.2288,
        "meta_mean_anomaly": 266.0526,
        "meta_ephemeris_type": 0,
        "meta_classification_type": "U",
        "meta_norad_cat_id": 33867,
        "meta_element_set_no": 999,
        "meta_rev_at_epoch": 89605,
        "meta_bstar": 0.007082286,
        "meta_mean_motion_dot": 0.01474763,
        "meta_mean_motion_ddot": 0,
        "tle_line1": "1 33867U 97051AL  25352.73483988  .01474763  00000+0  70823-2 0  9999",
        "tle_line2": "2 33867  86.3657 346.9641 0013454  94.2288 266.0526 15.79918724896055"
      },
      "geometry": {
        "type": "Point",
        "coordinates": [
          159.03661534499474,
          64.17940879393097
        ]
      }
    },
    {
      "type": "Feature",
      "properties": {
        "norad_id": 33870,
        "name": "IRIDIUM 33 DEB",
        "group": "iridium-33-debris",
        "lat": -40.858530998674695,
        "lon": 52.24055782407539,
        "alt_km": 760.7824546919237,
        "timestamp": "2025-12-19T10:50:01.586271+00:00",
        "meta_object_name": "IRIDIUM 33 DEB",
        "meta_object_id": "1997-051AP",
        "meta_epoch": "2025-12-18T17:20:39.314400",
        "meta_mean_motion": 14.45881075,
        "meta_eccentricity": 0.00221051,
        "meta_inclination": 86.3746,
        "meta_ra_of_asc_node": 55.6965,
        "meta_arg_of_pericenter": 158.9069,
        "meta_mean_anomaly": 329.4105,
        "meta_ephemeris_type": 0,
        "meta_classification_type": "U",
        "meta_norad_cat_id": 33870,
        "meta_element_set_no": 999,
        "meta_rev_at_epoch": 88223,
        "meta_bstar": 0.0005316684,
        "meta_mean_motion_dot": 1.914e-05,
        "meta_mean_motion_ddot": 0,
        "tle_line1": "1 33870U 97051AP  25352.72267725  .00001914  00000+0  53167-3 0  9997",
        "tle_line2": "2 33870  86.3746  55.6965 0022105 158.9069 329.4105 14.45881075882231"
      },
      "geometry": {
        "type": "Point",
        "coordinates": [
          52.24055782407539,
          -40.858530998674695
        ]
      }
    },
    {
      "type": "Feature",
      "properties": {
        "norad_id": 33881,
        "name": "IRIDIUM 33 DEB",
        "group": "iridium-33-debris",
        "lat": 84.93654441238444,
        "lon": 149.3274529097432,
        "alt_km": 678.8337261897232,
        "timestamp": "2025-12-19T10:50:01.586283+00:00",
        "meta_object_name": "IRIDIUM 33 DEB",
        "meta_object_id": "1997-051BA",
        "meta_epoch": "2025-12-18T18:38:37.341312",
        "meta_mean_motion": 14.56678227,
        "meta_eccentricity": 0.00614608,
        "meta_inclination": 86.3861,
        "meta_ra_of_asc_node": 104.1184,
        "meta_arg_of_pericenter": 155.2089,
        "meta_mean_anomaly": 356.6087,
        "meta_ephemeris_type": 0,
        "meta_classification_type": "U",
        "meta_norad_cat_id": 33881,
        "meta_element_set_no": 999,
        "meta_rev_at_epoch": 87588,
        "meta_bstar": 0.0015458281,
        "meta_mean_motion_dot": 7.103e-05,
        "meta_mean_motion_ddot": 0,
        "tle_line1": "1 33881U 97051BA  25352.77682108  .00007103  00000+0  15458-2 0  9996",
        "tle_line2": "2 33881  86.3861 104.1184 0061460 155.2089 356.6087 14.56678227875882"
      },
      "geometry": {
        "type": "Point",
        "coordinates": [
          149.3274529097432,
          84.93654441238444
        ]
      }
    },
    {
      "type": "Feature",
      "properties": {
        "norad_id": 33884,
        "name": "IRIDIUM 33 DEB",
        "group": "iridium-33-debris",
        "lat": 2.920229000526775,
        "lon": -173.3966675931691,
        "alt_km": 643.1347259996955,
        "timestamp": "2025-12-19T10:50:01.586300+00:00",
        "meta_object_name": "IRIDIUM 33 DEB",
        "meta_object_id": "1997-051BD",
        "meta_epoch": "2025-12-18T11:58:04.433088",
        "meta_mean_motion": 14.77541028,
        "meta_eccentricity": 0.00092581,
        "meta_inclination": 86.3692,
        "meta_ra_of_asc_node": 7.219,
        "meta_arg_of_pericenter": 301.5803,
        "meta_mean_anomaly": 210.9745,
        "meta_ephemeris_type": 0,
        "meta_classification_type": "U",
        "meta_norad_cat_id": 33884,
        "meta_element_set_no": 999,
        "meta_rev_at_epoch": 88932,
        "meta_bstar": 0.0012713868,
        "meta_mean_motion_dot": 9.106e-05,
        "meta_mean_motion_ddot": 0,
        "tle_line1": "1 33884U 97051BD  25352.49866242  .00009106  00000+0  12714-2 0  9998",
        "tle_line2": "2 33884  86.3692   7.2190 0009258 301.5803 210.9745 14.77541028889322"
      },
      "geometry": {
        "type": "Point",
        "coordinates": [
          -173.3966675931691,
          2.920229000526775
        ]
      }
    }
  ]
}